CTC1_L_00591001-01
1 19776U 24397DV  26070.40840278  .00000000  00000+0  00000-0 0  9992
2 19776  65.0000   0.0000 0000000   0.0000   0.0000  6.30405269    19
CTC1_L_00591001-02
1 19777U 26588QL  26070.40840278  .00000000  00000+0  00000-0 0  9997
2 19777  65.0000   0.0000 0000000   0.0000  36.0000  6.30405269    19
CTC1_L_00591001-03
1 19778U 24091EF  26070.40840278  .00000000  00000+0  00000-0 0  9995
2 19778  65.0000   0.0000 0000000   0.0000  72.0000  6.30405269    10
CTC1_L_00591001-04
1 19779U 24926GD  26070.40840278  .00000000  00000+0  00000-0 0  9993
2 19779  65.0000   0.0000 0000000   0.0000 108.0000  6.30405269    11
CTC1_L_00591001-05
1 19780U 23838YN  26070.40840278  .00000000  00000+0  00000-0 0  9996
2 19780  65.0000   0.0000 0000000   0.0000 144.0000  6.30405269    13
CTC1_L_00591001-06
1 19781U 24850BQ  26070.40840278  .00000000  00000+0  00000-0 0  9992
2 19781  65.0000   0.0000 0000000   0.0000 180.0000  6.30405269    14
CTC1_L_00591001-07
1 19782U 26128IK  26070.40840278  .00000000  00000+0  00000-0 0  9993
2 19782  65.0000   0.0000 0000000   0.0000 216.0000  6.30405269    15
CTC1_L_00591001-08
1 19783U 26028RM  26070.40840278  .00000000  00000+0  00000-0 0  9993
2 19783  65.0000   0.0000 0000000   0.0000 252.0000  6.30405269    16
CTC1_L_00591001-09
1 19784U 23074WF  26070.40840278  .00000000  00000+0  00000-0 0  9992
2 19784  65.0000   0.0000 0000000   0.0000 288.0000  6.30405269    16
CTC1_L_00591001-10
1 19785U 25204YB  26070.40840278  .00000000  00000+0  00000-0 0  9990
2 19785  65.0000   0.0000 0000000   0.0000 324.0000  6.30405269    18
CTC1_L_00591002-01
1 19786U 24347MT  26070.40840278  .00000000  00000+0  00000-0 0  9998
2 19786  65.0000  30.0000 0000000   0.0000  12.0000  6.30405269    16
CTC1_L_00591002-02
1 19787U 24744MM  26070.40840278  .00000000  00000+0  00000-0 0  9990
2 19787  65.0000  30.0000 0000000   0.0000  48.0000  6.30405269    16
CTC1_L_00591002-03
1 19788U 25723RK  26070.40840278  .00000000  00000+0  00000-0 0  9999
2 19788  65.0000  30.0000 0000000   0.0000  84.0000  6.30405269    17
CTC1_L_00591002-04
1 19789U 25436QV  26070.40840278  .00000000  00000+0  00000-0 0  9991
2 19789  65.0000  30.0000 0000000   0.0000 120.0000  6.30405269    19
CTC1_L_00591002-05
1 19790U 22714OJ  26070.40840278  .00000000  00000+0  00000-0 0  9999
2 19790  65.0000  30.0000 0000000   0.0000 156.0000  6.30405269    10
CTC1_L_00591002-06
1 19791U 25299BR  26070.40840278  .00000000  00000+0  00000-0 0  9991
2 19791  65.0000  30.0000 0000000   0.0000 192.0000  6.30405269    11
CTC1_L_00591002-07
1 19792U 22223VS  26070.40840278  .00000000  00000+0  00000-0 0  9996
2 19792  65.0000  30.0000 0000000   0.0000 228.0000  6.30405269    12
CTC1_L_00591002-08
1 19793U 23189YP  26070.40840278  .00000000  00000+0  00000-0 0  9999
2 19793  65.0000  30.0000 0000000   0.0000 264.0000  6.30405269    13
CTC1_L_00591002-09
1 19794U 22722VE  26070.40840278  .00000000  00000+0  00000-0 0  9992
2 19794  65.0000  30.0000 0000000   0.0000 300.0000  6.30405269    15
CTC1_L_00591002-10
1 19795U 23711MX  26070.40840278  .00000000  00000+0  00000-0 0  9992
2 19795  65.0000  30.0000 0000000   0.0000 336.0000  6.30405269    15
CTC1_L_00591003-01
1 19796U 26516KY  26070.40840278  .00000000  00000+0  00000-0 0  9999
2 19796  65.0000  60.0000 0000000   0.0000  24.0000  6.30405269    13
CTC1_L_00591003-02
1 19797U 25027YN  26070.40840278  .00000000  00000+0  00000-0 0  9996
2 19797  65.0000  60.0000 0000000   0.0000  60.0000  6.30405269    14
CTC1_L_00591003-03
1 19798U 24214KA  26070.40840278  .00000000  00000+0  00000-0 0  9994
2 19798  65.0000  60.0000 0000000   0.0000  96.0000  6.30405269    14
CTC1_L_00591003-04
1 19799U 25113OM  26070.40840278  .00000000  00000+0  00000-0 0  9994
2 19799  65.0000  60.0000 0000000   0.0000 132.0000  6.30405269    16
CTC1_L_00591003-05
1 19800U 25927PJ  26070.40840278  .00000000  00000+0  00000-0 0  9990
2 19800  65.0000  60.0000 0000000   0.0000 168.0000  6.30405269    18
CTC1_L_00591003-06
1 19801U 23774BD  26070.40840278  .00000000  00000+0  00000-0 0  9999
2 19801  65.0000  60.0000 0000000   0.0000 204.0000  6.30405269    10
CTC1_L_00591003-07
1 19802U 24065HT  26070.40840278  .00000000  00000+0  00000-0 0  9994
2 19802  65.0000  60.0000 0000000   0.0000 240.0000  6.30405269    11
CTC1_L_00591003-08
1 19803U 26889RI  26070.40840278  .00000000  00000+0  00000-0 0  9991
2 19803  65.0000  60.0000 0000000   0.0000 276.0000  6.30405269    11
CTC1_L_00591003-09
1 19804U 22750AC  26070.40840278  .00000000  00000+0  00000-0 0  9995
2 19804  65.0000  60.0000 0000000   0.0000 312.0000  6.30405269    13
CTC1_L_00591003-10
1 19805U 22819FW  26070.40840278  .00000000  00000+0  00000-0 0  9992
2 19805  65.0000  60.0000 0000000   0.0000 348.0000  6.30405269    13
CTC1_L_00591004-01
1 19806U 25898ID  26070.40840278  .00000000  00000+0  00000-0 0  9993
2 19806  65.0000  90.0000 0000000   0.0000  36.0000  6.30405269    11
CTC1_L_00591004-02
1 19807U 22773QV  26070.40840278  .00000000  00000+0  00000-0 0  9993
2 19807  65.0000  90.0000 0000000   0.0000  72.0000  6.30405269    12
CTC1_L_00591004-03
1 19808U 25585KP  26070.40840278  .00000000  00000+0  00000-0 0  9998
2 19808  65.0000  90.0000 0000000   0.0000 108.0000  6.30405269    13
CTC1_L_00591004-04
1 19809U 26563HY  26070.40840278  .00000000  00000+0  00000-0 0  9996
2 19809  65.0000  90.0000 0000000   0.0000 144.0000  6.30405269    14
CTC1_L_00591004-05
1 19810U 24130JT  26070.40840278  .00000000  00000+0  00000-0 0  9996
2 19810  65.0000  90.0000 0000000   0.0000 180.0000  6.30405269    16
CTC1_L_00591004-06
1 19811U 23441RE  26070.40840278  .00000000  00000+0  00000-0 0  9991
2 19811  65.0000  90.0000 0000000   0.0000 216.0000  6.30405269    17
CTC1_L_00591004-07
1 19812U 25180JL  26070.40840278  .00000000  00000+0  00000-0 0  9994
2 19812  65.0000  90.0000 0000000   0.0000 252.0000  6.30405269    18
CTC1_L_00591004-08
1 19813U 26461CN  26070.40840278  .00000000  00000+0  00000-0 0  9998
2 19813  65.0000  90.0000 0000000   0.0000 288.0000  6.30405269    18
CTC1_L_00591004-09
1 19814U 25390FV  26070.40840278  .00000000  00000+0  00000-0 0  9999
2 19814  65.0000  90.0000 0000000   0.0000 324.0000  6.30405269    10
CTC1_L_00591004-10
1 19815U 25357BF  26070.40840278  .00000000  00000+0  00000-0 0  9993
2 19815  65.0000  90.0000 0000000   0.0000   0.0000  6.30405269    12
CTC1_L_00591005-01
1 19816U 25010TM  26070.40840278  .00000000  00000+0  00000-0 0  9990
2 19816  65.0000 120.0000 0000000   0.0000  48.0000  6.30405269    19
CTC1_L_00591005-02
1 19817U 26347GQ  26070.40840278  .00000000  00000+0  00000-0 0  9995
2 19817  65.0000 120.0000 0000000   0.0000  84.0000  6.30405269    10
CTC1_L_00591005-03
1 19818U 22999RR  26070.40840278  .00000000  00000+0  00000-0 0  9995
2 19818  65.0000 120.0000 0000000   0.0000 120.0000  6.30405269    12
CTC1_L_00591005-04
1 19819U 24513DW  26070.40840278  .00000000  00000+0  00000-0 0  9990
2 19819  65.0000 120.0000 0000000   0.0000 156.0000  6.30405269    12
CTC1_L_00591005-05
1 19820U 24454PZ  26070.40840278  .00000000  00000+0  00000-0 0  9996
2 19820  65.0000 120.0000 0000000   0.0000 192.0000  6.30405269    14
CTC1_L_00591005-06
1 19821U 22746WF  26070.40840278  .00000000  00000+0  00000-0 0  9999
2 19821  65.0000 120.0000 0000000   0.0000 228.0000  6.30405269    15
CTC1_L_00591005-07
1 19822U 23315UW  26070.40840278  .00000000  00000+0  00000-0 0  9993
2 19822  65.0000 120.0000 0000000   0.0000 264.0000  6.30405269    16
CTC1_L_00591005-08
1 19823U 22679NW  26070.40840278  .00000000  00000+0  00000-0 0  9996
2 19823  65.0000 120.0000 0000000   0.0000 300.0000  6.30405269    18
CTC1_L_00591005-09
1 19824U 23971JW  26070.40840278  .00000000  00000+0  00000-0 0  9993
2 19824  65.0000 120.0000 0000000   0.0000 336.0000  6.30405269    18
CTC1_L_00591005-10
1 19825U 22754DR  26070.40840278  .00000000  00000+0  00000-0 0  9992
2 19825  65.0000 120.0000 0000000   0.0000  12.0000  6.30405269    10
CTC1_L_00591006-01
1 19826U 22514WS  26070.40840278  .00000000  00000+0  00000-0 0  9997
2 19826  65.0000 150.0000 0000000   0.0000  60.0000  6.30405269    17
CTC1_L_00591006-02
1 19827U 22604MZ  26070.40840278  .00000000  00000+0  00000-0 0  9998
2 19827  65.0000 150.0000 0000000   0.0000  96.0000  6.30405269    17
CTC1_L_00591006-03
1 19828U 26169YV  26070.40840278  .00000000  00000+0  00000-0 0  9999
2 19828  65.0000 150.0000 0000000   0.0000 132.0000  6.30405269    19
CTC1_L_00591006-04
1 19829U 22576CZ  26070.40840278  .00000000  00000+0  00000-0 0  9998
2 19829  65.0000 150.0000 0000000   0.0000 168.0000  6.30405269    19
CTC1_L_00591006-05
1 19830U 23788QO  26070.40840278  .00000000  00000+0  00000-0 0  9996
2 19830  65.0000 150.0000 0000000   0.0000 204.0000  6.30405269    12
CTC1_L_00591006-06
1 19831U 26388XX  26070.40840278  .00000000  00000+0  00000-0 0  9996
2 19831  65.0000 150.0000 0000000   0.0000 240.0000  6.30405269    13
CTC1_L_00591006-07
1 19832U 25414LA  26070.40840278  .00000000  00000+0  00000-0 0  9996
2 19832  65.0000 150.0000 0000000   0.0000 276.0000  6.30405269    13
CTC1_L_00591006-08
1 19833U 23431QK  26070.40840278  .00000000  00000+0  00000-0 0  9994
2 19833  65.0000 150.0000 0000000   0.0000 312.0000  6.30405269    15
CTC1_L_00591006-09
1 19834U 22151RF  26070.40840278  .00000000  00000+0  00000-0 0  9993
2 19834  65.0000 150.0000 0000000   0.0000 348.0000  6.30405269    15
CTC1_L_00591006-10
1 19835U 24332FX  26070.40840278  .00000000  00000+0  00000-0 0  9997
2 19835  65.0000 150.0000 0000000   0.0000  24.0000  6.30405269    17
CTC1_L_00591007-01
1 19836U 25500LG  26070.40840278  .00000000  00000+0  00000-0 0  9996
2 19836  65.0000 180.0000 0000000   0.0000  72.0000  6.30405269    14
CTC1_L_00591007-02
1 19837U 26638PT  26070.40840278  .00000000  00000+0  00000-0 0  9990
2 19837  65.0000 180.0000 0000000   0.0000 108.0000  6.30405269    15
